ONEWEB-0350             
1 49214U 21083AE  24210.16969829 -.00000136  00000+0 -40671-3 0  9995
2 49214  87.8912  97.3596 0001759  90.3540 269.7790 13.13471427141783
ONEWEB-0351             
1 49215U 21083AF  24210.09966471 -.00000026  00000+0 -96164-4 0  9995
2 49215  87.9180  51.5287 0000988  64.1332 295.9903 13.20772022147126
ONEWEB-0352             
1 49216U 21083AG  24210.22680771  .00000307  00000+0  80529-3 0  9994
2 49216  87.8913  97.3803 0001324  69.3330 290.7941 13.13472749141889
ONEWEB-0355             
1 49218U 21083AJ  24210.18078818 -.00000493  00000+0 -13837-2 0  9999
2 49218  87.8914  97.3886 0001695  78.1907 281.9412 13.13469737141756
ONEWEB-0357             
1 49219U 21083AK  24210.12190217  .00000096  00000+0  20497-3 0  9990
2 49219  87.9177  51.5276 0001592  86.3143 273.8173 13.20773109147156
ONEWEB-0332             
1 49279U 21090A   24210.12433195  .00000220  00000+0  55825-3 0  9991
2 49279  87.8930  66.7955 0001797  72.1643 287.9682 13.14504649137058
ONEWEB-0347             
1 49280U 21090B   24210.11243149 -.00000048  00000+0 -15115-3 0  9998
2 49280  87.9182  51.5296 0001955  70.9614 289.1731 13.20770462140081
